GPS BIII-1              
1 43873U 18109A   26087.26453723  .00000045  00000+0  00000+0 0  9996
2 43873  55.6315  95.3771 0037867 198.7638 175.8510  2.00557717 53455
METEOR-M2 2             
1 44387U 19038A   26087.60141182 -.00000044  00000+0  98636-6 0  9999
2 44387  98.9111  73.7170 0000234 201.1366 158.9803 14.24340410349823
GPS BIII-2              
1 44506U 19056A   26086.66222638 -.00000084  00000+0  00000+0 0  9998
2 44506  55.6735 334.3842 0058566 197.7684   3.1076  2.00568459 48436
BEIDOU-3 M24            
1 44542U 19061A   26085.55133484 -.00000030  00000+0  00000+0 0  9992
2 44542  54.3970 185.5149 0008194  15.0686 344.9633  1.86228792 44252
BEIDOU-3 M23            
1 44543U 19061B   26086.19599552 -.00000037  00000+0  00000+0 0  9993
2 44543  54.3950 185.4615 0004848   1.0858 343.2659  1.86227116 44266
BEIDOU-3 M22            
1 44793U 19078A   26086.46420429 -.00000031  00000+0  00000+0 0  9998
2 44793  54.0095 302.7034 0007454  41.3303 318.7622  1.86231892 43124
BEIDOU-3 M21            
1 44794U 19078B   26085.53035061 -.00000029  00000+0  00000+0 0  9997
2 44794  53.9841 302.6991 0005380  37.5776 322.4952  1.86227568 43112
ELEKTRO-L 3             
1 44903U 19095A   26087.55978676 -.00000115  00000+0  00000+0 0  9996
2 44903   0.0560  54.0118 0001404 288.6315 120.7740  1.00271554 22903
GPS BIII-3              
1 45854U 20041A   26085.71752809 -.00000068  00000+0  00000+0 0  9996
2 45854  56.6202  32.1434 0061620 205.2589 334.9468  2.00560015 42385
COSMOS 2547             
1 46805U 20075A   26086.76204793 -.00000031  00000+0  00000+0 0  9990
2 46805  64.5985 195.1905 0007370 232.5213 127.4084  2.13100219 42176
GPS BIII-4              
1 46826U 20078A   26086.74927044 -.00000029  00000+0  00000+0 0  9992
2 46826  53.9959 214.0799 0069538 204.9049 334.1351  2.00565073 39874
GSAT0223 (GALILEO 27)   
1 49809U 21116A   26085.57513177 -.00000095  00000+0  00000+0 0  9991
2 49809  57.1864 343.9082 0001802 284.7150 254.2688  1.70475251 26779
GSAT0224 (GALILEO 28)   
1 49810U 21116B   26083.04634432 -.00000085  00000+0  00000+0 0  9990
2 49810  57.1880 343.9758 0001287 309.9434 229.6785  1.70475197 26752
GOES 18                 
1 51850U 22021A   26087.51642039  .00000077  00000+0  00000+0 0  9991
2 51850   0.0465  20.5146 0000458  35.5165 178.7961  1.00272241  5784
COSMOS 2557 (706K)      
1 52984U 22075A   26087.39625647 -.00000031  00000+0  00000+0 0  9992
2 52984  64.3446 317.3335 0010932 283.5717  76.3612  2.13101749 28991
METEOSAT-12 (MTG-I1)    
1 54743U 22170C   26087.33072652 -.00000027  00000+0  00000+0 0  9994
2 54743   0.7309  25.3426 0001876 289.2592 349.8475  1.00272608 12161
METEOR-M2 3             
1 57166U 23091A   26087.57772010  .00000010  00000+0  22975-4 0  9991
2 57166  98.6173 144.1732 0004792  56.1947 303.9688 14.24039563143043
COSMOS 2569 (703K)      
1 57517U 23114A   26086.60261479  .00000045  00000+0  00000+0 0  9990
2 57517  65.2568  75.3702 0012915 293.3826  66.4917  2.13103809 20523
METEOR-M2 4             
1 59051U 24039A   26087.57127167  .00000034  00000+0  34853-4 0  9990
2 59051  98.6938  47.9170 0007951  48.9346 311.2518 14.22420096107806
GSAT0225 (GALILEO 29)   
1 59598U 24079A   26087.07569868  .00000039  00000+0  00000+0 0  9990
2 59598  55.0678 103.3445 0002740 270.8462 214.7370  1.70474547 11938
GSAT0227 (GALILEO 30)   
1 59600U 24079C   26084.70822061  .00000032  00000+0  00000+0 0  9991
2 59600  55.0598 103.4096 0000616  12.6919 347.3562  1.70474585 11944
GSAT0226 (GALILEO 31)   
1 61183U 24167B   26086.54056287 -.00000012  00000+0  00000+0 0  9990
2 61183  55.2106 223.5582 0001564 156.5708 194.8874  1.70474116  9455
GSAT0234 (GALILEO 34)   
1 67162U 25302C   26086.69588354  .00000036  00000+0  00000+0 0  9991
2 67162  54.2830 104.4494 0003830 286.8102  76.5044  1.70474528  1794
